NORAD_CAT_ID,OBJECT_NAME,OBJECT_TYPE,EPOCH,MEAN_MOTION,ECCENTRICITY,INCLINATION,RA_OF_ASC_NODE,ARG_OF_PERICENTER,MEAN_ANOMALY,BSTAR,MEAN_MOTION_DOT,MEAN_MOTION_DDOT,TLE_LINE0,TLE_LINE1,TLE_LINE2,SEMIMAJOR_AXIS,PERIOD,APOGEE,PERIGEE,DECAYED
53602.0,STARLINK-4648,PAYLOAD,2024-07-07 01:45:26,15.08840637,0.0001298,53.2162,100.2274,86.1935,273.9205,0.0010131,0.00015873,0.0,0 STARLINK-4648,1 53602U 22104Q   24189.07322375  .00015873  00000-0  10131-2 0  9990,2 53602  53.2162 100.2274 0001298  86.1935 273.9205 15.08840637102817,6917.878,95.438,540.641,538.846,0.0
53602.0,STARLINK-4648,PAYLOAD,2024-07-07 22:25:27,15.08849732,0.0001398,53.2164,96.3621,83.399,276.7161,0.00084882,0.0001325,0.0,0 STARLINK-4648,1 53602U 22104Q   24189.93434441  .00013250  00000-0  84882-3 0  9995,2 53602  53.2164  96.3621 0001398  83.3990 276.7161 15.08849732102942,6917.851,95.437,540.683,538.749,0.0
53602.0,STARLINK-4648,PAYLOAD,2024-07-08 11:08:31,15.08864703,0.0001395,53.2168,93.9825,83.7065,276.4086,0.0008606,0.00013444,0.0,0 STARLINK-4648,1 53602U 22104Q   24190.46425752  .00013444  00000-0  86060-3 0  9995,2 53602  53.2168  93.9825 0001395  83.7065 276.4086 15.08864703103713,6917.805,95.436,540.635,538.705,0.0
53602.0,STARLINK-4648,PAYLOAD,2024-07-08 22:16:13,15.08846481,0.0001512,53.2166,91.9001,90.6354,269.4812,0.00013466,1.856e-05,0.0,0 STARLINK-4648,1 53602U 22104Q   24190.92793839  .00001856  00000-0  13466-3 0  9994,2 53602  53.2166  91.9001 0001512  90.6354 269.4812 15.08846481103783,6917.861,95.437,540.772,538.68,0.0
53602.0,STARLINK-4648,PAYLOAD,2024-07-08 23:51:36,15.08846323,0.0001436,53.2164,91.6029,92.3708,267.7449,0.00015885,2.241e-05,0.0,0 STARLINK-4648,1 53602U 22104Q   24190.99417803  .00002241  00000-0  15885-3 0  9991,2 53602  53.2164  91.6029 0001436  92.3708 267.7449 15.08846323103103,6917.861,95.437,540.719,538.733,0.0
53602.0,STARLINK-4648,PAYLOAD,2024-07-09 10:59:18,15.08850841,0.000142,53.2172,89.5221,94.2071,265.9084,0.00074002,0.00011513,0.0,0 STARLINK-4648,1 53602U 22104Q   24191.45785730  .00011513  00000-0  74002-3 0  9998,2 53602  53.2172  89.5221 0001420  94.2071 265.9084 15.08850841103867,6917.847,95.437,540.695,538.73,0.0
53602.0,STARLINK-4648,PAYLOAD,2024-07-09 20:31:38,15.0883234,0.000154,53.2162,87.7372,104.0474,256.0689,0.00014401,2.004e-05,0.0,0 STARLINK-4648,1 53602U 22104Q   24191.85530094  .00002004  00000-0  14401-3 0  9995,2 53602  53.2162  87.7372 0001540 104.0474 256.0689 15.08832340103230,6917.904,95.438,540.834,538.703,0.0
53602.0,STARLINK-4648,PAYLOAD,2024-07-09 22:07:01,15.08833135,0.0001542,53.2166,87.4399,104.4929,255.6234,0.00023962,3.527e-05,0.0,0 STARLINK-4648,1 53602U 22104Q   24191.92154140  .00003527  00000-0  23962-3 0  9990,2 53602  53.2166  87.4399 0001542 104.4929 255.6234 15.08833135103932,6917.901,95.438,540.833,538.7,0.0
53602.0,STARLINK-4648,PAYLOAD,2024-07-10 02:53:10,15.08834129,0.0001697,53.2177,86.5475,112.047,248.0703,0.00036417,5.512e-05,0.0,0 STARLINK-4648,1 53602U 22104Q   24192.12026288  .00005512  00000-0  36417-3 0  9999,2 53602  53.2177  86.5475 0001697 112.0470 248.0703 15.08834129103960,6917.898,95.438,540.937,538.589,0.0
53602.0,STARLINK-4648,PAYLOAD,2024-07-10 21:57:48,15.08843486,0.0001631,53.217,82.9788,113.2088,246.9076,0.00045415,6.948e-05,0.0,0 STARLINK-4648,1 53602U 22104Q   24192.91514398  .00006948  00000-0  45415-3 0  9992,2 53602  53.2170  82.9788 0001631 113.2088 246.9076 15.08843486104086,6917.87,95.437,540.863,538.606,0.0
53602.0,STARLINK-4648,PAYLOAD,2024-07-11 02:43:57,15.08844994,0.0001591,53.2169,82.0871,111.9106,248.2055,0.00048029,7.365e-05,0.0,0 STARLINK-4648,1 53602U 22104Q   24193.11386400  .00007365  00000-0  48029-3 0  9994,2 53602  53.2169  82.0871 0001591 111.9106 248.2055 15.08844994103423,6917.865,95.437,540.831,538.629,0.0
53602.0,STARLINK-4648,PAYLOAD,2024-07-12 08:56:17,15.0884847,0.0001392,53.217,76.437,83.2177,276.8974,0.0002372,3.49e-05,0.0,0 STARLINK-4648,1 53602U 22104Q   24194.37242144  .00003490  00000-0  23720-3 0  9995,2 53602  53.2170  76.4370 0001392  83.2177 276.8974 15.08848470103615,6917.854,95.437,540.682,538.757,0.0
53602.0,STARLINK-4648,PAYLOAD,2024-07-12 20:03:59,15.08835306,0.0001972,53.2173,74.3577,88.6741,271.4477,-7.2514e-05,-1.442e-05,0.0,0 STARLINK-4648,1 53602U 22104Q   24194.83610747 -.00001442  00000-0 -72514-4 0  9997,2 53602  53.2173  74.3577 0001972  88.6741 271.4477 15.08835306103684,6917.895,95.438,541.124,538.396,0.0
53602.0,STARLINK-4648,PAYLOAD,2024-07-12 23:14:45,15.0883617,0.0001419,53.2172,73.7658,106.7553,253.3595,-5.377e-05,-1.143e-05,0.0,0 STARLINK-4648,1 53602U 22104Q   24194.96858642 -.00001143  00000-0 -53770-4 0  9990,2 53602  53.2172  73.7658 0001419 106.7553 253.3595 15.08836170104394,6917.892,95.438,540.739,538.775,0.0
53602.0,STARLINK-4648,PAYLOAD,2024-07-13 08:47:04,15.08848856,0.000136,53.2186,71.9759,73.8714,286.2428,0.00014498,2.021e-05,0.0,0 STARLINK-4648,1 53602U 22104Q   24195.36602048  .00002021  00000-0  14498-3 0  9999,2 53602  53.2186  71.9759 0001360  73.8714 286.2428 15.08848856103763,6917.853,95.437,540.659,538.777,0.0
53602.0,STARLINK-4648,PAYLOAD,2024-07-13 19:54:47,15.08832609,0.0001859,53.2195,69.8983,89.4575,270.663,0.00014241,1.979e-05,0.0,0 STARLINK-4648,1 53602U 22104Q   24195.82971121  .00001979  00000-0  14241-3 0  9998,2 53602  53.2195  69.8983 0001859  89.4575 270.6630 15.08832609103838,6917.903,95.438,541.054,538.482,0.0
53602.0,STARLINK-4648,PAYLOAD,2024-07-13 21:30:10,15.08830397,0.0001486,53.2189,69.601,90.7339,269.3823,0.00012975,1.777e-05,0.0,0 STARLINK-4648,1 53602U 22104Q   24195.89595245  .00001777  00000-0  12975-3 0  9992,2 53602  53.2189  69.6010 0001486  90.7339 269.3823 15.08830397104538,6917.91,95.438,540.803,538.747,0.0
53602.0,STARLINK-4648,PAYLOAD,2024-07-14 08:37:51,15.08843515,0.0001245,53.2165,67.5184,90.1301,269.9833,0.00024211,3.568e-05,0.0,0 STARLINK-4648,1 53602U 22104Q   24196.35962439  .00003568  00000-0  24211-3 0  9993,2 53602  53.2165  67.5184 0001245  90.1301 269.9833 15.08843515103911,6917.87,95.437,540.596,538.873,0.0
53602.0,STARLINK-4648,PAYLOAD,2024-07-14 21:20:56,15.08838511,0.0001194,53.2167,65.135,83.0051,277.1077,-1.4288e-05,-5.15e-06,0.0,0 STARLINK-4648,1 53602U 22104Q   24196.88954805 -.00000515  00000-0 -14288-4 0  9994,2 53602  53.2167  65.1350 0001194  83.0051 277.1077 15.08838511103997,6917.885,95.438,540.576,538.924,0.0
53602.0,STARLINK-4648,PAYLOAD,2024-07-15 08:28:37,15.08860966,0.0001292,53.2179,63.053,85.3067,274.8072,0.00020402,2.962e-05,0.0,0 STARLINK-4648,1 53602U 22104Q   24197.35321583  .00002962  00000-0  20402-3 0  9998,2 53602  53.2179  63.0530 0001292  85.3067 274.8072 15.08860966104065,6917.816,95.436,540.575,538.788,0.0
53602.0,STARLINK-4648,PAYLOAD,2024-07-15 21:11:44,15.08832351,0.0001203,53.2158,60.6761,95.7956,264.3173,-8.8502e-05,-1.696e-05,0.0,0 STARLINK-4648,1 53602U 22104Q   24197.88314958 -.00001696  00000-0 -88502-4 0  9995,2 53602  53.2158  60.6761 0001203  95.7956 264.3173 15.08832351104147,6917.904,95.438,540.601,538.937,0.0
53602.0,STARLINK-4648,PAYLOAD,2024-07-16 21:02:30,15.08851404,0.0001264,53.2167,56.2156,99.3385,260.775,0.00033157,4.995e-05,0.0,0 STARLINK-4648,1 53602U 22104Q   24198.87674589  .00004995  00000-0  33157-3 0  9992,2 53602  53.2167  56.2156 0001264  99.3385 260.7750 15.08851404104296,6917.846,95.437,540.585,538.836,0.0
53602.0,STARLINK-4648,PAYLOAD,2024-07-17 20:53:18,15.08840101,0.0001142,53.2178,51.7621,86.8677,273.2446,5.8142e-05,6.38e-06,0.0,0 STARLINK-4648,1 53602U 22104Q   24199.87035136  .00000638  00000-0  58142-4 0  9994,2 53602  53.2178  51.7621 0001142  86.8677 273.2446 15.08840101104445,6917.88,95.438,540.535,538.955,0.0
53602.0,STARLINK-4648,PAYLOAD,2024-07-18 09:36:23,15.08847276,0.0001273,53.2182,49.3831,85.1784,274.9354,-3.5415e-05,-8.52e-06,0.0,0 STARLINK-4648,1 53602U 22104Q   24200.40026869 -.00000852  00000-0 -35415-4 0  9997,2 53602  53.2182  49.3831 0001273  85.1784 274.9354 15.08847276105214,6917.858,95.437,540.604,538.843,0.0
53602.0,STARLINK-4648,PAYLOAD,2024-07-18 20:44:06,15.08833564,0.0001371,53.2191,47.3011,104.9935,255.1209,-1.6702e-05,-5.54e-06,0.0,0 STARLINK-4648,1 53602U 22104Q   24200.86395973 -.00000554  00000-0 -16702-4 0  9999,2 53602  53.2191  47.3011 0001371 104.9935 255.1209 15.08833564104594,6917.9,95.438,540.714,538.817,0.0
53602.0,STARLINK-4648,PAYLOAD,2024-07-19 06:16:23,15.08851535,0.000143,53.2193,45.514,79.1141,281.0012,0.00014093,1.956e-05,0.0,0 STARLINK-4648,1 53602U 22104Q   24201.26138589  .00001956  00000-0  14093-3 0  9997,2 53602  53.2193  45.5140 0001430  79.1141 281.0012 15.08851535104652,6917.845,95.437,540.699,538.721,0.0
53602.0,STARLINK-4648,PAYLOAD,2024-07-19 20:34:53,15.08832108,0.0001368,53.2196,42.8436,114.0683,246.0452,5.2871e-05,5.53e-06,0.0,0 STARLINK-4648,1 53602U 22104Q   24201.85756077  .00000553  00000-0  52871-4 0  9999,2 53602  53.2196  42.8436 0001368 114.0683 246.0452 15.08832108104747,6917.905,95.438,540.716,538.823,0.0
53602.0,STARLINK-4648,PAYLOAD,2024-07-20 06:07:10,15.08850593,8.82e-05,53.2172,41.047,74.4806,285.6283,0.00020759,3.019e-05,0.0,0 STARLINK-4648,1 53602U 22104Q   24202.25498406  .00003019  00000-0  20759-3 0  9992,2 53602  53.2172  41.0470 0000882  74.4806 285.6283 15.08850593104802,6917.848,95.437,540.323,539.103,0.0
53602.0,STARLINK-4648,PAYLOAD,2024-07-20 20:25:40,15.08828667,0.0001412,53.2197,38.3812,108.943,251.1716,0.00011665,1.568e-05,0.0,0 STARLINK-4648,1 53602U 22104Q   24202.85116550  .00001568  00000-0  11665-3 0  9998,2 53602  53.2197  38.3812 0001412 108.9430 251.1716 15.08828667104899,6917.915,95.438,540.757,538.803,0.0
53602.0,STARLINK-4648,PAYLOAD,2024-07-21 12:19:31,15.08843189,0.0002511,53.2181,35.4023,81.1165,279.0112,-4.1218e-06,-3.54e-06,0.0,0 STARLINK-4648,1 53602U 22104Q   24203.51356196 -.00000354  00000-0 -41218-5 0  9997,2 53602  53.2181  35.4023 0002511  81.1165 279.0112 15.08843189104998,6917.871,95.437,541.473,537.999,0.0
